STARLINK-30257          
1 57526U 23115F   26010.12430509  .00003898  00000+0  30366-3 0  9998
2 57526  43.0041 323.0734 0000910 269.8601  90.2137 15.02513748133503
STARLINK-30250          
1 57527U 23115G   26010.25059483 -.00001745  00000+0 -11416-3 0  9997
2 57527  43.0064 322.2694 0001178 268.6361  91.4346 15.02527015134421
STARLINK-30269          
1 57528U 23115H   26010.56968329 -.00000226  00000+0 -16418-5 0  9992
2 57528  43.0054 320.3923 0000940 276.9104  83.1631 15.02530095133570
STARLINK-30266          
1 57529U 23115J   26010.22729199 -.00001004  00000+0 -59239-4 0  9998
2 57529  43.0052 322.1056 0001156 269.3918  90.6792 15.02531284133522
STARLINK-30270          
1 57530U 23115K   26010.56633453 -.00003117  00000+0 -21573-3 0  9990
2 57530  43.0047 320.3600 0000983 270.5458  89.5271 15.02547241133577
STARLINK-30268          
1 57531U 23115L   26010.24726987 -.00000537  00000+0 -24710-4 0  9991
2 57531  43.0037 322.2651 0001202 281.8315  78.2392 15.02532457133523
STARLINK-30251          
1 57532U 23115M   26010.24173141 -.00001829  00000+0 -12039-3 0  9995
2 57532  43.0066 322.2127 0000926 267.4676  92.6060 15.02523362133523
STARLINK-30254          
1 57533U 23115N   26010.51938911 -.00015696  00000+0 -56149-3 0  9997
2 57533  43.0007  71.6791 0000785 239.0807 120.9967 15.27615171136469
STARLINK-30264          
1 57534U 23115P   26010.14859922 -.00002043  00000+0 -64763-4 0  9995
2 57534  43.0006 179.5033 0000566 287.6901  72.3888 15.27571920136406
STARLINK-30166          
1 57602U 23119A   26010.40184875 -.00000172  00000+0  23305-5 0  9990
2 57602  43.0051  38.6986 0001261 268.0504  92.0194 15.02529010134255
STARLINK-30223          
1 57603U 23119B   26010.51482548 -.00000714  00000+0 -37811-4 0  9990
2 57603  43.0038  37.8170 0001067 279.0332  81.0390 15.02529878134328
STARLINK-30218          
1 57604U 23119C   26010.12261405 -.00000315  00000+0 -82822-5 0  9995
2 57604  43.0033  40.0414 0000873 268.8139  91.2603 15.02534715134276
STARLINK-30138          
1 57605U 23119D   26010.38519776  .00000862  00000+0  78870-4 0  9993
2 57605  43.0032  38.5738 0000789 274.0125  86.0627 15.02528649134319
STARLINK-30255          
1 57606U 23119E   26010.49262235 -.00005679  00000+0 -40551-3 0  9998
2 57606  43.0049  37.6562 0001311 258.0923 101.9773 15.02547611134334
STARLINK-30252          
1 57607U 23119F   26010.39547843 -.00000307  00000+0 -76789-5 0  9996
2 57607  43.0044  25.9084 0001482 270.7990  89.2682 15.02534422134460
STARLINK-30258          
1 57608U 23119G   26010.44279602 -.00000206  00000+0 -16542-6 0  9998
2 57608  43.0044  38.1425 0001197 275.5701  84.5004 15.02534462134327
