[{"OBJECT_NAME":"STARLINK-30257","OBJECT_ID":"2023-115F","EPOCH":"2026-01-10T02:58:59.959776","MEAN_MOTION":15.02513748,"ECCENTRICITY":9.106e-5,"INCLINATION":43.0041,"RA_OF_ASC_NODE":323.0734,"ARG_OF_PERICENTER":269.8601,"MEAN_ANOMALY":90.2137,"EPHEMERIS_TYPE":0,"CLASSIFICATION_TYPE":"U","NORAD_CAT_ID":57526,"ELEMENT_SET_NO":999,"REV_AT_EPOCH":13350,"BSTAR":0.00030365646,"MEAN_MOTION_DOT":3.898e-5,"MEAN_MOTION_DDOT":0},{"OBJECT_NAME":"STARLINK-30250","OBJECT_ID":"2023-115G","EPOCH":"2026-01-10T06:00:51.393312","MEAN_MOTION":15.02527015,"ECCENTRICITY":0.00011783,"INCLINATION":43.0064,"RA_OF_ASC_NODE":322.2694,"ARG_OF_PERICENTER":268.6361,"MEAN_ANOMALY":91.4346,"EPHEMERIS_TYPE":0,"CLASSIFICATION_TYPE":"U","NORAD_CAT_ID":57527,"ELEMENT_SET_NO":999,"REV_AT_EPOCH":13442,"BSTAR":-0.00011415574,"MEAN_MOTION_DOT":-1.745e-5,"MEAN_MOTION_DDOT":0},{"OBJECT_NAME":"STARLINK-30269","OBJECT_ID":"2023-115H","EPOCH":"2026-01-10T13:40:20.636256","MEAN_MOTION":15.02530095,"ECCENTRICITY":9.409e-5,"INCLINATION":43.0054,"RA_OF_ASC_NODE":320.3923,"ARG_OF_PERICENTER":276.9104,"MEAN_ANOMALY":83.1631,"EPHEMERIS_TYPE":0,"CLASSIFICATION_TYPE":"U","NORAD_CAT_ID":57528,"ELEMENT_SET_NO":999,"REV_AT_EPOCH":13357,"BSTAR":-1.641774e-6,"MEAN_MOTION_DOT":-2.26e-6,"MEAN_MOTION_DDOT":0},{"OBJECT_NAME":"STARLINK-30266","OBJECT_ID":"2023-115J","EPOCH":"2026-01-10T05:27:18.027936","MEAN_MOTION":15.02531284,"ECCENTRICITY":0.0001156,"INCLINATION":43.0052,"RA_OF_ASC_NODE":322.1056,"ARG_OF_PERICENTER":269.3918,"MEAN_ANOMALY":90.6792,"EPHEMERIS_TYPE":0,"CLASSIFICATION_TYPE":"U","NORAD_CAT_ID":57529,"ELEMENT_SET_NO":999,"REV_AT_EPOCH":13352,"BSTAR":-5.9238968e-5,"MEAN_MOTION_DOT":-1.004e-5,"MEAN_MOTION_DDOT":0},{"OBJECT_NAME":"STARLINK-30270","OBJECT_ID":"2023-115K","EPOCH":"2026-01-10T13:35:31.303392","MEAN_MOTION":15.02547241,"ECCENTRICITY":9.835e-5,"INCLINATION":43.0047,"RA_OF_ASC_NODE":320.36,"ARG_OF_PERICENTER":270.5458,"MEAN_ANOMALY":89.5271,"EPHEMERIS_TYPE":0,"CLASSIFICATION_TYPE":"U","NORAD_CAT_ID":57530,"ELEMENT_SET_NO":999,"REV_AT_EPOCH":13357,"BSTAR":-0.00021572544,"MEAN_MOTION_DOT":-3.117e-5,"MEAN_MOTION_DDOT":0},{"OBJECT_NAME":"STARLINK-30268","OBJECT_ID":"2023-115L","EPOCH":"2026-01-10T05:56:04.116768","MEAN_MOTION":15.02532457,"ECCENTRICITY":0.00012021,"INCLINATION":43.0037,"RA_OF_ASC_NODE":322.2651,"ARG_OF_PERICENTER":281.8315,"MEAN_ANOMALY":78.2392,"EPHEMERIS_TYPE":0,"CLASSIFICATION_TYPE":"U","NORAD_CAT_ID":57531,"ELEMENT_SET_NO":999,"REV_AT_EPOCH":13352,"BSTAR":-2.4709619e-5,"MEAN_MOTION_DOT":-5.37e-6,"MEAN_MOTION_DDOT":0},{"OBJECT_NAME":"STARLINK-30251","OBJECT_ID":"2023-115M","EPOCH":"2026-01-10T05:48:05.593824","MEAN_MOTION":15.02523362,"ECCENTRICITY":9.267e-5,"INCLINATION":43.0066,"RA_OF_ASC_NODE":322.2127,"ARG_OF_PERICENTER":267.4676,"MEAN_ANOMALY":92.606,"EPHEMERIS_TYPE":0,"CLASSIFICATION_TYPE":"U","NORAD_CAT_ID":57532,"ELEMENT_SET_NO":999,"REV_AT_EPOCH":13352,"BSTAR":-0.00012038535,"MEAN_MOTION_DOT":-1.829e-5,"MEAN_MOTION_DDOT":0},{"OBJECT_NAME":"STARLINK-30254","OBJECT_ID":"2023-115N","EPOCH":"2026-01-10T12:27:55.219104","MEAN_MOTION":15.27615171,"ECCENTRICITY":7.855e-5,"INCLINATION":43.0007,"RA_OF_ASC_NODE":71.6791,"ARG_OF_PERICENTER":239.0807,"MEAN_ANOMALY":120.9967,"EPHEMERIS_TYPE":0,"CLASSIFICATION_TYPE":"U","NORAD_CAT_ID":57533,"ELEMENT_SET_NO":999,"REV_AT_EPOCH":13646,"BSTAR":-0.00056148503,"MEAN_MOTION_DOT":-0.00015696,"MEAN_MOTION_DDOT":0},{"OBJECT_NAME":"STARLINK-30264","OBJECT_ID":"2023-115P","EPOCH":"2026-01-10T03:33:58.972608","MEAN_MOTION":15.2757192,"ECCENTRICITY":5.665e-5,"INCLINATION":43.0006,"RA_OF_ASC_NODE":179.5033,"ARG_OF_PERICENTER":287.6901,"MEAN_ANOMALY":72.3888,"EPHEMERIS_TYPE":0,"CLASSIFICATION_TYPE":"U","NORAD_CAT_ID":57534,"ELEMENT_SET_NO":999,"REV_AT_EPOCH":13640,"BSTAR":-6.4763365e-5,"MEAN_MOTION_DOT":-2.043e-5,"MEAN_MOTION_DDOT":0},{"OBJECT_NAME":"STARLINK-30166","OBJECT_ID":"2023-119A","EPOCH":"2026-01-10T09:38:39.732000","MEAN_MOTION":15.0252901,"ECCENTRICITY":0.00012613,"INCLINATION":43.0051,"RA_OF_ASC_NODE":38.6986,"ARG_OF_PERICENTER":268.0504,"MEAN_ANOMALY":92.0194,"EPHEMERIS_TYPE":0,"CLASSIFICATION_TYPE":"U","NORAD_CAT_ID":57602,"ELEMENT_SET_NO":999,"REV_AT_EPOCH":13425,"BSTAR":2.330475e-6,"MEAN_MOTION_DOT":-1.72e-6,"MEAN_MOTION_DDOT":0},{"OBJECT_NAME":"STARLINK-30223","OBJECT_ID":"2023-119B","EPOCH":"2026-01-10T12:21:20.921472","MEAN_MOTION":15.02529878,"ECCENTRICITY":0.0001067,"INCLINATION":43.0038,"RA_OF_ASC_NODE":37.817,"ARG_OF_PERICENTER":279.0332,"MEAN_ANOMALY":81.039,"EPHEMERIS_TYPE":0,"CLASSIFICATION_TYPE":"U","NORAD_CAT_ID":57603,"ELEMENT_SET_NO":999,"REV_AT_EPOCH":13432,"BSTAR":-3.7810867e-5,"MEAN_MOTION_DOT":-7.14e-6,"MEAN_MOTION_DDOT":0},{"OBJECT_NAME":"STARLINK-30218","OBJECT_ID":"2023-119C","EPOCH":"2026-01-10T02:56:33.853920","MEAN_MOTION":15.02534715,"ECCENTRICITY":8.738e-5,"INCLINATION":43.0033,"RA_OF_ASC_NODE":40.0414,"ARG_OF_PERICENTER":268.8139,"MEAN_ANOMALY":91.2603,"EPHEMERIS_TYPE":0,"CLASSIFICATION_TYPE":"U","NORAD_CAT_ID":57604,"ELEMENT_SET_NO":999,"REV_AT_EPOCH":13427,"BSTAR":-8.282164e-6,"MEAN_MOTION_DOT":-3.15e-6,"MEAN_MOTION_DDOT":0},{"OBJECT_NAME":"STARLINK-30138","OBJECT_ID":"2023-119D","EPOCH":"2026-01-10T09:14:41.086464","MEAN_MOTION":15.02528649,"ECCENTRICITY":7.896e-5,"INCLINATION":43.0032,"RA_OF_ASC_NODE":38.5738,"ARG_OF_PERICENTER":274.0125,"MEAN_ANOMALY":86.0627,"EPHEMERIS_TYPE":0,"CLASSIFICATION_TYPE":"U","NORAD_CAT_ID":57605,"ELEMENT_SET_NO":999,"REV_AT_EPOCH":13431,"BSTAR":7.8870024e-5,"MEAN_MOTION_DOT":8.62e-6,"MEAN_MOTION_DDOT":0},{"OBJECT_NAME":"STARLINK-30255","OBJECT_ID":"2023-119E","EPOCH":"2026-01-10T11:49:22.571040","MEAN_MOTION":15.02547611,"ECCENTRICITY":0.00013116,"INCLINATION":43.0049,"RA_OF_ASC_NODE":37.6562,"ARG_OF_PERICENTER":258.0923,"MEAN_ANOMALY":101.9773,"EPHEMERIS_TYPE":0,"CLASSIFICATION_TYPE":"U","NORAD_CAT_ID":57606,"ELEMENT_SET_NO":999,"REV_AT_EPOCH":13433,"BSTAR":-0.00040551047,"MEAN_MOTION_DOT":-5.679e-5,"MEAN_MOTION_DDOT":0},{"OBJECT_NAME":"STARLINK-30252","OBJECT_ID":"2023-119F","EPOCH":"2026-01-10T09:29:29.336352","MEAN_MOTION":15.02534422,"ECCENTRICITY":0.00014826,"INCLINATION":43.0044,"RA_OF_ASC_NODE":25.9084,"ARG_OF_PERICENTER":270.799,"MEAN_ANOMALY":89.2682,"EPHEMERIS_TYPE":0,"CLASSIFICATION_TYPE":"U","NORAD_CAT_ID":57607,"ELEMENT_SET_NO":999,"REV_AT_EPOCH":13446,"BSTAR":-7.678941e-6,"MEAN_MOTION_DOT":-3.07e-6,"MEAN_MOTION_DDOT":0},{"OBJECT_NAME":"STARLINK-30258","OBJECT_ID":"2023-119G","EPOCH":"2026-01-10T10:37:37.576128","MEAN_MOTION":15.02534462,"ECCENTRICITY":0.00011972,"INCLINATION":43.0044,"RA_OF_ASC_NODE":38.1425,"ARG_OF_PERICENTER":275.5701,"MEAN_ANOMALY":84.5004,"EPHEMERIS_TYPE":0,"CLASSIFICATION_TYPE":"U","NORAD_CAT_ID":57608,"ELEMENT_SET_NO":999,"REV_AT_EPOCH":13432,"BSTAR":-1.65415e-7,"MEAN_MOTION_DOT":-2.06e-6,"MEAN_MOTION_DDOT":0}]
